SL-14 R/B               
1 16792U 86046B   26007.84985538  .00000656  00000+0  72765-4 0  9991
2 16792  82.4833 137.6569 0024472  70.4067 289.9788 14.85520882117378
SL-14 R/B               
1 16882U 86055B   26008.12343672  .00000582  00000+0  64382-4 0  9994
2 16882  82.5199 183.5802 0019167 168.3376 288.8241 14.85564025110371
AJISAI (EGS)            
1 16908U 86061A   26008.18468317 -.00000075  00000+0  15900-3 0  9999
2 16908  50.0097 279.4021 0011315 132.2629  29.5640 12.44514748460464
COSMOS 1812             
1 17295U 87003A   26008.16481980  .00126884  00000+0  61043-3 0  9990
2 17295  82.4842 263.2831 0003960  57.3790 302.7860 15.82272788134822
SL-14 R/B               
1 17567U 87024B   26007.90535672  .00000608  00000+0  66477-4 0  9996
2 17567  82.5292 149.8750 0019696 101.3485 258.9946 14.86060090 79107
COSMOS 1833             
1 17589U 87027A   26008.19352869  .00000348  00000+0  21195-3 0  9998
2 17589  70.9186  93.1703 0023788 295.0550  64.8101 14.13038884  1775
SL-16 R/B               
1 17590U 87027B   26008.13066479  .00000241  00000+0  14349-3 0  9998
2 17590  71.0030  44.1073 0006731 231.4701 128.5820 14.17158061  6768
SL-14 R/B               
1 17912U 87038B   26008.20585697  .00000553  00000+0  61466-4 0  9993
2 17912  82.5018 353.7697 0019538   9.4163 350.7415 14.85293735 70251
COSMOS 1844             
1 17973U 87041A   26008.15108296 -.00000039  00000+0  49684-5 0  9993
2 17973  70.8991 161.8655 0028517 115.2235 245.1848 14.14539269995028
SL-14 R/B               
1 18153U 87055B   26008.19314166  .00000454  00000+0  49621-4 0  9998
2 18153  82.4980  46.0541 0019884 209.9171 150.0910 14.85552856 60955
COSMOS 1867             
1 18187U 87060A   26008.01079771  .00000003  00000+0  38655-4 0  9997
2 18187  65.0110 116.6338 0013793 273.7265  86.2242 14.31491635 11253
SL-14 R/B               
1 18749U 88001B   26008.18448300  .00000444  00000+0  48479-4 0  9997
2 18749  82.5122 252.2758 0019590  79.2063 281.1357 14.85455876 33043
