CCSDS_OMM_VERS = 2.0
CREATION_DATE  = 
ORIGINATOR     = 

OBJECT_NAME    = SL-14 R/B
OBJECT_ID      = 1986-046B
CENTER_NAME    = EARTH
REF_FRAME      = TEME
TIME_SYSTEM    = UTC
MEAN_ELEMENT_THEORY = SGP/SGP4

EPOCH          = 2026-01-07T20:23:47.504832
MEAN_MOTION    = 14.85520882
ECCENTRICITY   = .00244724
INCLINATION    = 82.4833
RA_OF_ASC_NODE = 137.6569
ARG_OF_PERICENTER = 70.4067
MEAN_ANOMALY   = 289.9788

EPHEMERIS_TYPE = 0
CLASSIFICATION_TYPE = U
NORAD_CAT_ID   = 16792
ELEMENT_SET_NO = 999
REV_AT_EPOCH   = 11737
BSTAR          = .72764715E-4
MEAN_MOTION_DOT = .656E-5
MEAN_MOTION_DDOT = 0

CCSDS_OMM_VERS = 2.0
CREATION_DATE  = 
ORIGINATOR     = 

OBJECT_NAME    = SL-14 R/B
OBJECT_ID      = 1986-055B
CENTER_NAME    = EARTH
REF_FRAME      = TEME
TIME_SYSTEM    = UTC
MEAN_ELEMENT_THEORY = SGP/SGP4

EPOCH          = 2026-01-08T02:57:44.932608
MEAN_MOTION    = 14.85564025
ECCENTRICITY   = .0019167
INCLINATION    = 82.5199
RA_OF_ASC_NODE = 183.5802
ARG_OF_PERICENTER = 168.3376
MEAN_ANOMALY   = 288.8241

EPHEMERIS_TYPE = 0
CLASSIFICATION_TYPE = U
NORAD_CAT_ID   = 16882
ELEMENT_SET_NO = 999
REV_AT_EPOCH   = 11037
BSTAR          = .64382E-4
MEAN_MOTION_DOT = .582E-5
MEAN_MOTION_DDOT = 0

CCSDS_OMM_VERS = 2.0
CREATION_DATE  = 
ORIGINATOR     = 

OBJECT_NAME    = AJISAI (EGS)
OBJECT_ID      = 1986-061A
CENTER_NAME    = EARTH
REF_FRAME      = TEME
TIME_SYSTEM    = UTC
MEAN_ELEMENT_THEORY = SGP/SGP4

EPOCH          = 2026-01-08T04:25:56.625888
MEAN_MOTION    = 12.44514748
ECCENTRICITY   = .0011315
INCLINATION    = 50.0097
RA_OF_ASC_NODE = 279.4021
ARG_OF_PERICENTER = 132.2629
MEAN_ANOMALY   = 29.5640

EPHEMERIS_TYPE = 0
CLASSIFICATION_TYPE = U
NORAD_CAT_ID   = 16908
ELEMENT_SET_NO = 999
REV_AT_EPOCH   = 46046
BSTAR          = .159E-3
MEAN_MOTION_DOT = -.75E-6
MEAN_MOTION_DDOT = 0

CCSDS_OMM_VERS = 2.0
CREATION_DATE  = 
ORIGINATOR     = 

OBJECT_NAME    = COSMOS 1812
OBJECT_ID      = 1987-003A
CENTER_NAME    = EARTH
REF_FRAME      = TEME
TIME_SYSTEM    = UTC
MEAN_ELEMENT_THEORY = SGP/SGP4

EPOCH          = 2026-01-08T03:57:20.430720
MEAN_MOTION    = 15.82272788
ECCENTRICITY   = .000396
INCLINATION    = 82.4842
RA_OF_ASC_NODE = 263.2831
ARG_OF_PERICENTER = 57.3790
MEAN_ANOMALY   = 302.7860

EPHEMERIS_TYPE = 0
CLASSIFICATION_TYPE = U
NORAD_CAT_ID   = 17295
ELEMENT_SET_NO = 999
REV_AT_EPOCH   = 13482
BSTAR          = .61043E-3
MEAN_MOTION_DOT = .126884E-2
MEAN_MOTION_DDOT = 0

CCSDS_OMM_VERS = 2.0
CREATION_DATE  = 
ORIGINATOR     = 

OBJECT_NAME    = SL-14 R/B
OBJECT_ID      = 1987-024B
CENTER_NAME    = EARTH
REF_FRAME      = TEME
TIME_SYSTEM    = UTC
MEAN_ELEMENT_THEORY = SGP/SGP4

EPOCH          = 2026-01-07T21:43:42.820608
MEAN_MOTION    = 14.86060090
ECCENTRICITY   = .0019696
INCLINATION    = 82.5292
RA_OF_ASC_NODE = 149.8750
ARG_OF_PERICENTER = 101.3485
MEAN_ANOMALY   = 258.9946

EPHEMERIS_TYPE = 0
CLASSIFICATION_TYPE = U
NORAD_CAT_ID   = 17567
ELEMENT_SET_NO = 999
REV_AT_EPOCH   = 7910
BSTAR          = .66477E-4
MEAN_MOTION_DOT = .608E-5
MEAN_MOTION_DDOT = 0

CCSDS_OMM_VERS = 2.0
CREATION_DATE  = 
ORIGINATOR     = 

OBJECT_NAME    = COSMOS 1833
OBJECT_ID      = 1987-027A
CENTER_NAME    = EARTH
REF_FRAME      = TEME
TIME_SYSTEM    = UTC
MEAN_ELEMENT_THEORY = SGP/SGP4

EPOCH          = 2026-01-08T04:38:40.878816
MEAN_MOTION    = 14.13038884
ECCENTRICITY   = .0023788
INCLINATION    = 70.9186
RA_OF_ASC_NODE = 93.1703
ARG_OF_PERICENTER = 295.0550
MEAN_ANOMALY   = 64.8101

EPHEMERIS_TYPE = 0
CLASSIFICATION_TYPE = U
NORAD_CAT_ID   = 17589
ELEMENT_SET_NO = 999
REV_AT_EPOCH   = 177
BSTAR          = .21195E-3
MEAN_MOTION_DOT = .348E-5
MEAN_MOTION_DDOT = 0

CCSDS_OMM_VERS = 2.0
CREATION_DATE  = 
ORIGINATOR     = 

OBJECT_NAME    = SL-16 R/B
OBJECT_ID      = 1987-027B
CENTER_NAME    = EARTH
REF_FRAME      = TEME
TIME_SYSTEM    = UTC
MEAN_ELEMENT_THEORY = SGP/SGP4

EPOCH          = 2026-01-08T03:08:09.437856
MEAN_MOTION    = 14.17158061
ECCENTRICITY   = .0006731
INCLINATION    = 71.0030
RA_OF_ASC_NODE = 44.1073
ARG_OF_PERICENTER = 231.4701
MEAN_ANOMALY   = 128.5820

EPHEMERIS_TYPE = 0
CLASSIFICATION_TYPE = U
NORAD_CAT_ID   = 17590
ELEMENT_SET_NO = 999
REV_AT_EPOCH   = 676
BSTAR          = .14349E-3
MEAN_MOTION_DOT = .241E-5
MEAN_MOTION_DDOT = 0

CCSDS_OMM_VERS = 2.0
CREATION_DATE  = 
ORIGINATOR     = 

OBJECT_NAME    = SL-14 R/B
OBJECT_ID      = 1987-038B
CENTER_NAME    = EARTH
REF_FRAME      = TEME
TIME_SYSTEM    = UTC
MEAN_ELEMENT_THEORY = SGP/SGP4

EPOCH          = 2026-01-08T04:56:26.042208
MEAN_MOTION    = 14.85293735
ECCENTRICITY   = .0019538
INCLINATION    = 82.5018
RA_OF_ASC_NODE = 353.7697
ARG_OF_PERICENTER = 9.4163
MEAN_ANOMALY   = 350.7415

EPHEMERIS_TYPE = 0
CLASSIFICATION_TYPE = U
NORAD_CAT_ID   = 17912
ELEMENT_SET_NO = 999
REV_AT_EPOCH   = 7025
BSTAR          = .61466E-4
MEAN_MOTION_DOT = .553E-5
MEAN_MOTION_DDOT = 0

CCSDS_OMM_VERS = 2.0
CREATION_DATE  = 
ORIGINATOR     = 

OBJECT_NAME    = COSMOS 1844
OBJECT_ID      = 1987-041A
CENTER_NAME    = EARTH
REF_FRAME      = TEME
TIME_SYSTEM    = UTC
MEAN_ELEMENT_THEORY = SGP/SGP4

EPOCH          = 2026-01-08T03:37:33.567744
MEAN_MOTION    = 14.14539269
ECCENTRICITY   = .0028517
INCLINATION    = 70.8991
RA_OF_ASC_NODE = 161.8655
ARG_OF_PERICENTER = 115.2235
MEAN_ANOMALY   = 245.1848

EPHEMERIS_TYPE = 0
CLASSIFICATION_TYPE = U
NORAD_CAT_ID   = 17973
ELEMENT_SET_NO = 999
REV_AT_EPOCH   = 99502
BSTAR          = .49684E-5
MEAN_MOTION_DOT = -.39E-6
MEAN_MOTION_DDOT = 0

CCSDS_OMM_VERS = 2.0
CREATION_DATE  = 
ORIGINATOR     = 

OBJECT_NAME    = SL-14 R/B
OBJECT_ID      = 1987-055B
CENTER_NAME    = EARTH
REF_FRAME      = TEME
TIME_SYSTEM    = UTC
MEAN_ELEMENT_THEORY = SGP/SGP4

EPOCH          = 2026-01-08T04:38:07.439424
MEAN_MOTION    = 14.85552856
ECCENTRICITY   = .0019884
INCLINATION    = 82.4980
RA_OF_ASC_NODE = 46.0541
ARG_OF_PERICENTER = 209.9171
MEAN_ANOMALY   = 150.0910

EPHEMERIS_TYPE = 0
CLASSIFICATION_TYPE = U
NORAD_CAT_ID   = 18153
ELEMENT_SET_NO = 999
REV_AT_EPOCH   = 6095
BSTAR          = .49621E-4
MEAN_MOTION_DOT = .454E-5
MEAN_MOTION_DDOT = 0

CCSDS_OMM_VERS = 2.0
CREATION_DATE  = 
ORIGINATOR     = 

OBJECT_NAME    = COSMOS 1867
OBJECT_ID      = 1987-060A
CENTER_NAME    = EARTH
REF_FRAME      = TEME
TIME_SYSTEM    = UTC
MEAN_ELEMENT_THEORY = SGP/SGP4

EPOCH          = 2026-01-08T00:15:32.922144
MEAN_MOTION    = 14.31491635
ECCENTRICITY   = .0013793
INCLINATION    = 65.0110
RA_OF_ASC_NODE = 116.6338
ARG_OF_PERICENTER = 273.7265
MEAN_ANOMALY   = 86.2242

EPHEMERIS_TYPE = 0
CLASSIFICATION_TYPE = U
NORAD_CAT_ID   = 18187
ELEMENT_SET_NO = 999
REV_AT_EPOCH   = 1125
BSTAR          = .38655E-4
MEAN_MOTION_DOT = .3E-7
MEAN_MOTION_DDOT = 0

CCSDS_OMM_VERS = 2.0
CREATION_DATE  = 
ORIGINATOR     = 

OBJECT_NAME    = SL-14 R/B
OBJECT_ID      = 1988-001B
CENTER_NAME    = EARTH
REF_FRAME      = TEME
TIME_SYSTEM    = UTC
MEAN_ELEMENT_THEORY = SGP/SGP4

EPOCH          = 2026-01-08T04:25:39.331200
MEAN_MOTION    = 14.85455876
ECCENTRICITY   = .001959
INCLINATION    = 82.5122
RA_OF_ASC_NODE = 252.2758
ARG_OF_PERICENTER = 79.2063
MEAN_ANOMALY   = 281.1357

EPHEMERIS_TYPE = 0
CLASSIFICATION_TYPE = U
NORAD_CAT_ID   = 18749
ELEMENT_SET_NO = 999
REV_AT_EPOCH   = 3304
BSTAR          = .48479E-4
MEAN_MOTION_DOT = .444E-5
MEAN_MOTION_DDOT = 0

